[
    {
        "Altitude(m)": 717643.2323592161,
        "Argument of Periapsis(deg)": 0.0,
        "Eccentricity": 0.0,
        "Inclination(deg)": 45.0,
        "Latitude(deg)": -44.57607641935651,
        "Longitude(deg)": -138.49786241610207,
        "Mean Anomaly(deg)": 278.1818,
        "RAAN(deg)": 40.0,
        "Satellite Name": "Constellation 1 193",
        "Satellite Number": 193,
        "Semi-Major Axis(m)": 7083131.272910544,
        "Time(s)": 0
    },
    {
        "Altitude(m)": 717639.6959815156,
        "Argument of Periapsis(deg)": 5.994800624540561e-05,
        "Eccentricity": 0.0,
        "Inclination(deg)": 45.0,
        "Latitude(deg)": -44.56751637103715,
        "Longitude(deg)": -138.41803923996144,
        "Mean Anomaly(deg)": 278.2425011402499,
        "RAAN(deg)": 39.999943410834426,
        "Satellite Name": "Constellation 1 193",
        "Satellite Number": 193,
        "Semi-Major Axis(m)": 7083131.272910544,
        "Time(s)": 1
    },
    {
        "Altitude(m)": 717636.134089882,
        "Argument of Periapsis(deg)": 0.00011989601249081122,
        "Eccentricity": 0.0,
        "Inclination(deg)": 45.0,
        "Latitude(deg)": -44.55889467028166,
        "Longitude(deg)": -138.33824071291352,
        "Mean Anomaly(deg)": 278.30320228049976,
        "RAAN(deg)": 39.99988682166886,
        "Satellite Name": "Constellation 1 193",
        "Satellite Number": 193,
        "Semi-Major Axis(m)": 7083131.272910544,
        "Time(s)": 2
    },
    {
        "Altitude(m)": 717632.5466974354,
        "Argument of Periapsis(deg)": 0.00017984401873621686,
        "Eccentricity": 0.0,
        "Inclination(deg)": 45.0,
        "Latitude(deg)": -44.55021135337834,
        "Longitude(deg)": -138.25846699697237,
        "Mean Anomaly(deg)": 278.3639034207497,
        "RAAN(deg)": 39.999830232503285,
        "Satellite Name": "Constellation 1 193",
        "Satellite Number": 193,
        "Semi-Major Axis(m)": 7083131.272910544,
        "Time(s)": 3
    },
    {
        "Altitude(m)": 717628.9338173864,
        "Argument of Periapsis(deg)": 0.00023979202498162244,
        "Eccentricity": 0.0,
        "Inclination(deg)": 45.0,
        "Latitude(deg)": -44.54146645684771,
        "Longitude(deg)": -138.1787182537412,
        "Mean Anomaly(deg)": 278.42460456099957,
        "RAAN(deg)": 39.999773643337726,
        "Satellite Name": "Constellation 1 193",
        "Satellite Number": 193,
        "Semi-Major Axis(m)": 7083131.272910544,
        "Time(s)": 4
    },
    {
        "Altitude(m)": 717625.2954630528,
        "Argument of Periapsis(deg)": 0.00029974003122702807,
        "Eccentricity": 0.0,
        "Inclination(deg)": 45.0,
        "Latitude(deg)": -44.53266001744162,
        "Longitude(deg)": -138.09899464440988,
        "Mean Anomaly(deg)": 278.48530570124944,
        "RAAN(deg)": 39.99971705417215,
        "Satellite Name": "Constellation 1 193",
        "Satellite Number": 193,
        "Semi-Major Axis(m)": 7083131.272910544,
        "Time(s)": 5
    },
    {
        "Altitude(m)": 717621.6316478348,
        "Argument of Periapsis(deg)": 0.00035968803747243373,
        "Eccentricity": 0.0,
        "Inclination(deg)": 45.0,
        "Latitude(deg)": -44.52379207214269,
        "Longitude(deg)": -138.01929632975262,
        "Mean Anomaly(deg)": 278.5460068414994,
        "RAAN(deg)": 39.999660465006585,
        "Satellite Name": "Constellation 1 193",
        "Satellite Number": 193,
        "Semi-Major Axis(m)": 7083131.272910544,
        "Time(s)": 6
    },
    {
        "Altitude(m)": 717617.9423852295,
        "Argument of Periapsis(deg)": 0.00041963604371783933,
        "Eccentricity": 0.0,
        "Inclination(deg)": 45.0,
        "Latitude(deg)": -44.514862658163196,
        "Longitude(deg)": -137.93962363822303,
        "Mean Anomaly(deg)": 278.60670798174925,
        "RAAN(deg)": 39.99960387584101,
        "Satellite Name": "Constellation 1 193",
        "Satellite Number": 193,
        "Semi-Major Axis(m)": 7083131.272910544,
        "Time(s)": 7
    },
    {
        "Altitude(m)": 717614.227688827,
        "Argument of Periapsis(deg)": 0.0004795840499632449,
        "Eccentricity": 0.0,
        "Inclination(deg)": 45.0,
        "Latitude(deg)": -44.505871812945465,
        "Longitude(deg)": -137.85997639356358,
        "Mean Anomaly(deg)": 278.6674091219992,
        "RAAN(deg)": 39.999547286675444,
        "Satellite Name": "Constellation 1 193",
        "Satellite Number": 193,
        "Semi-Major Axis(m)": 7083131.272910544,
        "Time(s)": 8
    },
    {
        "Altitude(m)": 717610.4875723174,
        "Argument of Periapsis(deg)": 0.0005395320562086505,
        "Eccentricity": 0.0,
        "Inclination(deg)": 45.0,
        "Latitude(deg)": -44.496819574159645,
        "Longitude(deg)": -137.7803549233863,
        "Mean Anomaly(deg)": 278.72811026224906,
        "RAAN(deg)": 39.99949069750987,
        "Satellite Name": "Constellation 1 193",
        "Satellite Number": 193,
        "Semi-Major Axis(m)": 7083131.272910544,
        "Time(s)": 9
    },
    {
        "Altitude(m)": 717606.7220494732,
        "Argument of Periapsis(deg)": 0.0005994800624540561,
        "Eccentricity": 0.0,
        "Inclination(deg)": 45.0,
        "Latitude(deg)": -44.487705979703925,
        "Longitude(deg)": -137.70075938678195,
        "Mean Anomaly(deg)": 278.788811402499,
        "RAAN(deg)": 39.9994341083443,
        "Satellite Name": "Constellation 1 193",
        "Satellite Number": 193,
        "Semi-Major Axis(m)": 7083131.272910544,
        "Time(s)": 10
    },
    {
        "Altitude(m)": 717602.9311341683,
        "Argument of Periapsis(deg)": 0.0006594280686994618,
        "Eccentricity": 0.0,
        "Inclination(deg)": 45.0,
        "Latitude(deg)": -44.478531067703564,
        "Longitude(deg)": -137.62118994241467,
        "Mean Anomaly(deg)": 278.8495125427489,
        "RAAN(deg)": 39.99937751917873,
        "Satellite Name": "Constellation 1 193",
        "Satellite Number": 193,
        "Semi-Major Axis(m)": 7083131.272910544,
        "Time(s)": 11
    },
    {
        "Altitude(m)": 717599.1148403675,
        "Argument of Periapsis(deg)": 0.0007193760749448675,
        "Eccentricity": 0.0,
        "Inclination(deg)": 45.0,
        "Latitude(deg)": -44.46929487651023,
        "Longitude(deg)": -137.5416467485211,
        "Mean Anomaly(deg)": 278.9102136829988,
        "RAAN(deg)": 39.99932093001316,
        "Satellite Name": "Constellation 1 193",
        "Satellite Number": 193,
        "Semi-Major Axis(m)": 7083131.272910544,
        "Time(s)": 12
    },
    {
        "Altitude(m)": 717595.2731821298,
        "Argument of Periapsis(deg)": 0.000779324081190273,
        "Eccentricity": 0.0,
        "Inclination(deg)": 45.0,
        "Latitude(deg)": -44.459997444701145,
        "Longitude(deg)": -137.4621299629067,
        "Mean Anomaly(deg)": 278.9709148232487,
        "RAAN(deg)": 39.999264340847596,
        "Satellite Name": "Constellation 1 193",
        "Satellite Number": 193,
        "Semi-Major Axis(m)": 7083131.272910544,
        "Time(s)": 13
    },
    {
        "Altitude(m)": 717591.4061736052,
        "Argument of Periapsis(deg)": 0.0008392720874356787,
        "Eccentricity": 0.0,
        "Inclination(deg)": 45.0,
        "Latitude(deg)": -44.45063881107847,
        "Longitude(deg)": -137.3826397429449,
        "Mean Anomaly(deg)": 279.03161596349855,
        "RAAN(deg)": 39.99920775168203,
        "Satellite Name": "Constellation 1 193",
        "Satellite Number": 193,
        "Semi-Major Axis(m)": 7083131.272910544,
        "Time(s)": 14
    },
    {
        "Altitude(m)": 717587.5138290399,
        "Argument of Periapsis(deg)": 0.0008992200936810842,
        "Eccentricity": 0.0,
        "Inclination(deg)": 45.0,
        "Latitude(deg)": -44.44121901466824,
        "Longitude(deg)": -137.30317641367162,
        "Mean Anomaly(deg)": 279.0923171037485,
        "RAAN(deg)": 39.999151162516455,
        "Satellite Name": "Constellation 1 193",
        "Satellite Number": 193,
        "Semi-Major Axis(m)": 7083131.272910544,
        "Time(s)": 15
    },
    {
        "Altitude(m)": 717583.5961627725,
        "Argument of Periapsis(deg)": 0.0009591680999264898,
        "Eccentricity": 0.0,
        "Inclination(deg)": 45.0,
        "Latitude(deg)": -44.4317380947206,
        "Longitude(deg)": -137.22373979539495,
        "Mean Anomaly(deg)": 279.15301824399836,
        "RAAN(deg)": 39.99909457335089,
        "Satellite Name": "Constellation 1 193",
        "Satellite Number": 193,
        "Semi-Major Axis(m)": 7083131.272910544,
        "Time(s)": 16
    },
    {
        "Altitude(m)": 717579.6531892307,
        "Argument of Periapsis(deg)": 0.0010191161061718953,
        "Eccentricity": 0.0,
        "Inclination(deg)": 45.0,
        "Latitude(deg)": -44.42219609070767,
        "Longitude(deg)": -137.14433021227592,
        "Mean Anomaly(deg)": 279.21371938424824,
        "RAAN(deg)": 39.999037984185314,
        "Satellite Name": "Constellation 1 193",
        "Satellite Number": 193,
        "Semi-Major Axis(m)": 7083131.272910544,
        "Time(s)": 17
    },
    {
        "Altitude(m)": 717575.684922944,
        "Argument of Periapsis(deg)": 0.001079064112417301,
        "Eccentricity": 0.0,
        "Inclination(deg)": 45.0,
        "Latitude(deg)": -44.41259304232362,
        "Longitude(deg)": -137.06494781993757,
        "Mean Anomaly(deg)": 279.27442052449817,
        "RAAN(deg)": 39.99898139501975,
        "Satellite Name": "Constellation 1 193",
        "Satellite Number": 193,
        "Semi-Major Axis(m)": 7083131.272910544,
        "Time(s)": 18
    }
]